     3.05           N: GNSS NAV DATA    G: GPS              RINEX VERSION / TYPE
BNC 2.13.0          BKG Frankfurt       20240531 091606 UTC PGM / RUN BY / DATE
Concatenated RINEX files (22)                               COMMENT
                                                            END OF HEADER
G22 2024 05 30 07 59 44-2.057431265710e-05-5.115907697470e-12 0.000000000000e+00
     1.000000000000e+00 2.762500000000e+01 4.976993026020e-09-6.790015037100e-02
     1.505017280580e-06 1.427449728360e-02 6.444752216340e-06 5.153699211120e+03
     3.743840000000e+05-9.685754776000e-08 1.587117190940e-02-1.061707735060e-07
     9.615367917070e-01 2.600625000000e+02-1.134557994250e+00-8.529283850340e-09
    -7.250302004180e-11 1.000000000000e+00 2.316000000000e+03 0.000000000000e+00
     2.000000000000e+00 0.000000000000e+00-1.117587089540e-08 1.000000000000e+00
     3.698760000000e+05 4.000000000000e+00                                      
G09 2024 05 30 07 59 44 2.154200337827e-04 1.432454155292e-11 0.000000000000e+00
     1.200000000000e+01-8.575000000000e+01 4.655908222980e-09-1.280099284245e-01
    -4.695728421211e-06 2.717441762798e-03 7.236376404762e-06 5.153660627365e+03
     3.743840000000e+05-1.303851604462e-08-2.193421150212e+00-5.401670932770e-08
     9.584327340904e-01 2.377187500000e+02 1.985636566830e+00-8.208556205029e-09
     3.285851154604e-11 1.000000000000e+00 2.316000000000e+03 0.000000000000e+00
     2.000000000000e+00 0.000000000000e+00 9.313225746155e-10 1.200000000000e+01
     3.711180000000e+05 4.000000000000e+00                                      
G15 2024 05 30 07 59 44 1.645763404667e-04 4.206412995700e-12 0.000000000000e+00
     6.400000000000e+01-7.943750000000e+01 5.169858202488e-09-1.540896579499e+00
    -3.781169652939e-06 1.563174824696e-02 6.867572665215e-06 5.153656564713e+03
     3.743840000000e+05 2.160668373108e-07-2.321398734981e+00 3.054738044739e-07
     9.353856037535e-01 2.260625000000e+02 1.312934111879e+00-8.354990876049e-09
     1.964367538078e-11 1.000000000000e+00 2.316000000000e+03 0.000000000000e+00
     2.000000000000e+00 0.000000000000e+00-1.024454832077e-08 6.400000000000e+01
     3.715080000000e+05 4.000000000000e+00                                      
G32 2024 05 30 08 00 00-6.175031885500e-04 7.958078640510e-13 0.000000000000e+00
     8.200000000000e+01-9.290625000000e+01 4.603048878320e-09 1.350868633900e-01
    -4.937872290610e-06 7.780028972770e-03 8.435919880870e-06 5.153683002470e+03
     3.744000000000e+05-5.029141902920e-08-2.178787873250e+00 1.266598701480e-07
     9.618399024810e-01 2.200937500000e+02-2.131334829390e+00-8.243557662980e-09
    -5.035924052160e-11 1.000000000000e+00 2.316000000000e+03 0.000000000000e+00
     2.000000000000e+00 0.000000000000e+00 9.313225746150e-10 8.200000000000e+01
     3.672180000000e+05 4.000000000000e+00                                      
G23 2024 05 30 08 00 00 2.379724755880e-04 9.322320693170e-12 0.000000000000e+00
     2.390000000000e+02-1.053125000000e+01 4.218389998590e-09 2.533345156450e+00
    -3.948807716370e-07 4.184546298350e-03 3.546476364140e-06 5.153715814590e+03
     3.744000000000e+05-1.266598701480e-07 3.039540342720e+00-4.470348358150e-08
     9.795480723260e-01 3.178750000000e+02-2.967376741440e+00-8.169268854270e-09
     2.392956819110e-10 1.000000000000e+00 2.316000000000e+03 0.000000000000e+00
     2.000000000000e+00 0.000000000000e+00-8.381903171540e-09 1.007000000000e+03
     3.672180000000e+05 4.000000000000e+00                                      
G29 2024 05 30 08 00 00-5.963984876870e-04 1.591615728100e-12 0.000000000000e+00
     5.500000000000e+01 2.168750000000e+01 4.206960951100e-09-5.747996058880e-01
     1.009553670880e-06 2.931203227490e-03 8.620321750640e-06 5.153586395260e+03
     3.744000000000e+05-5.587935447690e-09 1.048519324500e+00-5.029141902920e-08
     9.713176147520e-01 2.198125000000e+02 2.550172512100e+00-7.892114452530e-09
    -4.532331646950e-10 1.000000000000e+00 2.316000000000e+03 0.000000000000e+00
     2.000000000000e+00 0.000000000000e+00-9.778887033460e-09 5.500000000000e+01
     3.672180000000e+05 4.000000000000e+00                                      
G18 2024 05 30 08 00 00-6.180447526280e-04-5.343281372920e-12 0.000000000000e+00
     2.130000000000e+02 7.531250000000e+01 3.914448766790e-09-2.545875447710e+00
     3.846362233160e-06 4.138026037250e-03 8.298084139820e-06 5.153613861080e+03
     3.744000000000e+05 9.313225746150e-09 2.038854357870e+00 3.352761268620e-08
     9.744288728510e-01 2.288750000000e+02-3.055982275050e+00-7.858541625520e-09
     1.696499237430e-10 1.000000000000e+00 2.316000000000e+03 0.000000000000e+00
     2.000000000000e+00 0.000000000000e+00-8.381903171540e-09 7.250000000000e+02
     3.672180000000e+05 4.000000000000e+00                                      
G10 2024 05 30 08 00 00-3.246357664470e-05-7.389644451910e-12 0.000000000000e+00
     1.690000000000e+02-1.243750000000e+01 4.200532111880e-09 1.391988579580e+00
    -6.631016731260e-07 9.335701586680e-03 3.840774297710e-06 5.153685838700e+03
     3.744000000000e+05-1.657754182820e-07 3.068525412190e+00 4.470348358150e-08
     9.844131292840e-01 3.177187500000e+02-2.372174138940e+00-8.252843764070e-09
     1.196478409560e-10 1.000000000000e+00 2.316000000000e+03 0.000000000000e+00
     2.000000000000e+00 0.000000000000e+00 2.328306436540e-09 1.690000000000e+02
     3.672180000000e+05 4.000000000000e+00                                      
G28 2024 05 30 08 00 00-2.662013284860e-04-1.682565198280e-11 0.000000000000e+00
     2.500000000000e+01-3.968750000000e+00 4.667694428210e-09 1.454587508360e+00
    -1.378357410430e-07 3.261739620940e-04 1.123361289500e-05 5.153655525210e+03
     3.744000000000e+05-1.490116119380e-08-1.153855321770e+00 3.166496753690e-08
     9.610862597520e-01 1.631875000000e+02 1.691713955230e+00-7.924615806340e-09
     3.292994309290e-10 1.000000000000e+00 2.316000000000e+03 0.000000000000e+00
     2.000000000000e+00 0.000000000000e+00-9.313225746150e-09 7.930000000000e+02
     3.672180000000e+05 4.000000000000e+00                                      
G27 2024 05 30 08 00 00-2.624932676550e-05-1.591615728100e-12 0.000000000000e+00
     9.300000000000e+01 1.128125000000e+01 4.602691720580e-09-5.217215922780e-01
     6.034970283510e-07 1.254516490740e-02 8.257105946540e-06 5.153679227830e+03
     3.744000000000e+05 5.587935447690e-08 9.652175111490e-01 1.732259988780e-07
     9.621803981270e-01 2.193437500000e+02 7.939691575790e-01-8.298202796310e-09
    -5.589518540170e-10 1.000000000000e+00 2.316000000000e+03 0.000000000000e+00
     2.800000000000e+00 0.000000000000e+00 1.862645149230e-09 9.300000000000e+01
     3.672180000000e+05 4.000000000000e+00                                      
G24 2024 05 30 08 00 00-4.739626310770e-04-3.069544618480e-12 0.000000000000e+00
     2.700000000000e+01-2.187500000000e+00 5.150214527110e-09-2.424157468510e+00
    -3.203749656680e-07 1.529553183350e-02 1.033209264280e-05 5.153714571000e+03
     3.744000000000e+05 1.676380634310e-07-1.217898109730e+00-1.024454832080e-07
     9.336581491240e-01 1.621875000000e+02 9.792442417960e-01-8.023191340980e-09
     4.021596087050e-10 1.000000000000e+00 2.316000000000e+03 0.000000000000e+00
     2.000000000000e+00 0.000000000000e+00 2.328306436540e-09 2.700000000000e+01
     3.672180000000e+05 4.000000000000e+00                                      
G31 2024 05 30 08 00 00-2.276408486070e-04 1.136868377220e-13 0.000000000000e+00
     7.000000000000e+01-5.750000000000e+00 4.791628161970e-09 1.960591413700e+00
    -2.533197402950e-07 1.046618924010e-02 1.110136508940e-05 5.153732023240e+03
     3.744000000000e+05-2.775341272350e-07-1.099266937410e+00 1.676380634310e-08
     9.539872376490e-01 1.649375000000e+02 6.781277729610e-01-8.028905864730e-09
     3.282279577260e-10 1.000000000000e+00 2.316000000000e+03 0.000000000000e+00
     2.000000000000e+00 0.000000000000e+00-1.350417733190e-08 7.000000000000e+01
     3.672420000000e+05 4.000000000000e+00                                      
G08 2024 05 30 08 00 00 2.047074958680e-04 1.921307557500e-11 0.000000000000e+00
     7.200000000000e+01 6.593750000000e+00 4.743769025590e-09-5.892198922190e-01
     2.700835466380e-07 9.462592308410e-03 7.951632142070e-06 5.153635232930e+03
     3.744000000000e+05 2.030283212660e-07 9.387209823650e-01 4.470348358150e-08
     9.531872145650e-01 2.223437500000e+02 3.632496644750e-01-8.301774373650e-09
    -5.660950087010e-10 1.000000000000e+00 2.316000000000e+03 0.000000000000e+00
     2.000000000000e+00 0.000000000000e+00 4.656612873080e-09 7.200000000000e+01
     3.707760000000e+05 4.000000000000e+00                                      
G16 2024 05 30 08 00 00-2.781269140540e-04 1.023181539490e-11 0.000000000000e+00
     8.200000000000e+01 2.675000000000e+01 4.964135347590e-09 3.147932636260e-01
     1.676380634310e-06 1.391361595600e-02 6.414949893950e-06 5.153776649480e+03
     3.744000000000e+05-7.636845111850e-08 1.257814770180e-02 1.732259988780e-07
     9.622187192660e-01 2.549062500000e+02 8.397460571940e-01-8.440708732260e-09
    -1.967939115420e-10 1.000000000000e+00 2.316000000000e+03 0.000000000000e+00
     2.000000000000e+00 0.000000000000e+00-1.024454832080e-08 8.200000000000e+01
     3.739860000000e+05 4.000000000000e+00                                      
